OBJECT_NAME,OBJECT_ID,EPOCH,MEAN_MOTION,ECCENTRICITY,INCLINATION,RA_OF_ASC_NODE,ARG_OF_PERICENTER,MEAN_ANOMALY,EPHEMERIS_TYPE,CLASSIFICATION_TYPE,NORAD_CAT_ID,ELEMENT_SET_NO,REV_AT_EPOCH,BSTAR,MEAN_MOTION_DOT,MEAN_MOTION_DDOT
AAGAMAN OBJECT B,2026-164B,2026-07-22T06:34:14.693088,15.39915044,.00065573,59.9252,289.6448,300.3055,59.7383,0,U,100081,999,61,.82537085E-3,.32989E-3,0
AAGAMAN OBJECT C,2026-164C,2026-07-22T05:00:11.642112,15.40028789,.0007582,59.9334,289.9071,306.2781,53.7605,0,U,100082,999,59,.56419201E-3,.22501E-3,0
TRANSPORTER-17 OBJECT CC,2026-156CC,2026-07-22T02:17:05.646336,14.92130504,.00099418,97.7505,103.3131,100.1685,260.0656,0,U,100100,999,220,.42409473E-3,.4261E-4,0
